KUIPER-00136            
1 65962U 25228R   25311.10668964  .00020531  00000+0  60533-3 0  9999
2 65962  51.8784 192.2321 0005616 216.3392 143.7213 15.34970549  4942
KUIPER-00137            
1 65963U 25228S   25311.11241907  .00015550  00000+0  46597-3 0  9994
2 65963  51.8793 192.2690 0004837 230.2032 129.8528 15.34666923  4944
KUIPER-00138            
1 65964U 25228T   25311.18048338  .00022696  00000+0  67966-3 0  9997
2 65964  51.8785 191.9687 0006080 244.2835 115.7523 15.34413030  4955
KUIPER-00140            
1 65965U 25228U   25311.18112083 -.00014197  00000+0 -40908-3 0  9993
2 65965  51.8790 191.9766 0005199 242.9955 117.0500 15.34405301  4950
KUIPER-00141            
1 65966U 25228V   25311.17452791  .00016485  00000+0  48969-3 0  9991
2 65966  51.8779 191.9282 0005576 222.5505 137.5049 15.34893316  4957
KUIPER-00146            
1 65967U 25228W   25311.10994797  .00026999  00000+0  79451-3 0  9993
2 65967  51.8790 192.2543 0005496 224.1597 135.8950 15.34866161  4944
KUIPER-00149            
1 65968U 25228X   25311.10708133  .00027784  00000+0  81260-3 0  9995
2 65968  51.8781 192.2298 0005389 221.0339 139.0242 15.35045180  4944
KUIPER-00154            
1 65969U 25228Y   25311.10600414  .00028682  00000+0  83657-3 0  9999
2 65969  51.8777 192.2231 0005722 218.2479 141.8102 15.35112224  4941
